{
  "norad_id": 65861,
  "name": "STARLINK-35258",
  "history": [
    {
      "epoch": "2026-03-28T18:21:24.840576Z",
      "apogee_km": 475.8472699845797,
      "perigee_km": 474.4988127008455,
      "latitude_deg": 5.041533939901288e-05,
      "longitude_deg": 104.2150081896416,
      "height_km": 476.0502585863355,
      "semi_major_axis_km": 6853.310041342712,
      "eccentricity": 9.838e-05,
      "inclination_deg": 53.1579,
      "raan_deg": 205.7491,
      "arg_perigee_deg": 88.2136,
      "mean_anomaly_deg": 271.8978,
      "mean_motion_rev_day": 15.30214076
    },
    {
      "epoch": "2026-03-29T00:37:37.976736Z",
      "apogee_km": 476.49255163247017,
      "perigee_km": 473.9184361917569,
      "latitude_deg": 3.53969343840348e-05,
      "longitude_deg": 8.685850208852036,
      "height_km": 475.9150211554855,
      "semi_major_axis_km": 6853.342493912113,
      "eccentricity": 0.0001878,
      "inclination_deg": 53.1588,
      "raan_deg": 204.5322,
      "arg_perigee_deg": 81.6193,
      "mean_anomaly_deg": 278.5021,
      "mean_motion_rev_day": 15.30203207
    },
    {
      "epoch": "2026-03-30T00:08:25.634400Z",
      "apogee_km": 475.8323248806655,
      "perigee_km": 474.5119663406713,
      "latitude_deg": 2.9262544205090997e-05,
      "longitude_deg": 10.473118159806612,
      "height_km": 475.81822159136505,
      "semi_major_axis_km": 6853.309145610668,
      "eccentricity": 9.633e-05,
      "inclination_deg": 53.157,
      "raan_deg": 199.9837,
      "arg_perigee_deg": 67.5419,
      "mean_anomaly_deg": 292.5684,
      "mean_motion_rev_day": 15.30214376
    },
    {
      "epoch": "2026-03-30T12:40:51.382272Z",
      "apogee_km": 476.0126790747354,
      "perigee_km": 474.31127907019163,
      "latitude_deg": 3.8998315473340486e-05,
      "longitude_deg": 179.42372377558942,
      "height_km": 475.5510207567064,
      "semi_major_axis_km": 6853.298979072463,
      "eccentricity": 0.00012413,
      "inclination_deg": 53.1594,
      "raan_deg": 197.5566,
      "arg_perigee_deg": 53.2199,
      "mean_anomaly_deg": 306.8916,
      "mean_motion_rev_day": 15.30217781
    },
    {
      "epoch": "2026-03-30T14:14:54.537792Z",
      "apogee_km": 475.95180547514974,
      "perigee_km": 474.4318742050509,
      "latitude_deg": -2.1058797079612726e-05,
      "longitude_deg": 155.54475439252025,
      "height_km": 475.7273372633497,
      "semi_major_axis_km": 6853.3288398401,
      "eccentricity": 0.00011089,
      "inclination_deg": 53.1579,
      "raan_deg": 197.2552,
      "arg_perigee_deg": 61.488,
      "mean_anomaly_deg": 298.6232,
      "mean_motion_rev_day": 15.3020778
    },
    {
      "epoch": "2026-03-31T13:45:42.695712Z",
      "apogee_km": 476.2762458878551,
      "perigee_km": 474.25723314619336,
      "latitude_deg": -2.8682087218434502e-05,
      "longitude_deg": 157.32683189917788,
      "height_km": 476.2826885234059,
      "semi_major_axis_km": 6853.4037395170235,
      "eccentricity": 0.0001473,
      "inclination_deg": 53.1586,
      "raan_deg": 192.7036,
      "arg_perigee_deg": 96.7295,
      "mean_anomaly_deg": 263.3873,
      "mean_motion_rev_day": 15.30182695
    },
    {
      "epoch": "2026-04-01T13:16:30.706752Z",
      "apogee_km": 475.9412280355791,
      "perigee_km": 474.5815137987902,
      "latitude_deg": 6.445679991011458e-05,
      "longitude_deg": 159.11279816287126,
      "height_km": 476.54740561346136,
      "semi_major_axis_km": 6853.398370917184,
      "eccentricity": 9.92e-05,
      "inclination_deg": 53.1588,
      "raan_deg": 188.1552,
      "arg_perigee_deg": 124.7485,
      "mean_anomaly_deg": 235.361,
      "mean_motion_rev_day": 15.30184493
    },
    {
      "epoch": "2026-04-02T12:47:18.410208Z",
      "apogee_km": 476.02664968591944,
      "perigee_km": 474.4479063872295,
      "latitude_deg": 5.5526151262994436e-05,
      "longitude_deg": 160.89247312757547,
      "height_km": 476.07665988017095,
      "semi_major_axis_km": 6853.374278036574,
      "eccentricity": 0.00011518,
      "inclination_deg": 53.1591,
      "raan_deg": 183.5993,
      "arg_perigee_deg": 85.7316,
      "mean_anomaly_deg": 274.3817,
      "mean_motion_rev_day": 15.30192562
    },
    {
      "epoch": "2026-04-03T15:26:13.033824Z",
      "apogee_km": 476.25057072874733,
      "perigee_km": 474.5248532062742,
      "latitude_deg": 1.5268694563517964e-05,
      "longitude_deg": 114.9170297349181,
      "height_km": 476.10791765503177,
      "semi_major_axis_km": 6853.5247119675105,
      "eccentricity": 0.0001259,
      "inclination_deg": 53.159,
      "raan_deg": 178.4459,
      "arg_perigee_deg": 78.109,
      "mean_anomaly_deg": 282.0052,
      "mean_motion_rev_day": 15.30142181
    },
    {
      "epoch": "2026-04-04T11:48:54.655200Z",
      "apogee_km": 476.00246761201015,
      "perigee_km": 474.2965475345436,
      "latitude_deg": 1.6391899501904232e-05,
      "longitude_deg": 164.46170358444687,
      "height_km": 476.20936004250166,
      "semi_major_axis_km": 6853.286507573276,
      "eccentricity": 0.00012446,
      "inclination_deg": 53.1594,
      "raan_deg": 174.5009,
      "arg_perigee_deg": 100.933,
      "mean_anomaly_deg": 259.1811,
      "mean_motion_rev_day": 15.30221958
    },
    {
      "epoch": "2026-04-05T11:19:43.587264Z",
      "apogee_km": 476.2525707180557,
      "perigee_km": 474.3151086466769,
      "latitude_deg": -4.1244333972665393e-05,
      "longitude_deg": 166.2412067939166,
      "height_km": 476.02545311274594,
      "semi_major_axis_km": 6853.420839682366,
      "eccentricity": 0.00014135,
      "inclination_deg": 53.159,
      "raan_deg": 169.95,
      "arg_perigee_deg": 80.7221,
      "mean_anomaly_deg": 279.3939,
      "mean_motion_rev_day": 15.30176968
    },
    {
      "epoch": "2026-04-06T04:34:18.568416Z",
      "apogee_km": 476.1706708943002,
      "perigee_km": 474.14730378699824,
      "latitude_deg": 5.631367094062078e-06,
      "longitude_deg": -96.45056141248422,
      "height_km": 475.84108506204365,
      "semi_major_axis_km": 6853.295987340649,
      "eccentricity": 0.00014762,
      "inclination_deg": 53.1589,
      "raan_deg": 166.6121,
      "arg_perigee_deg": 77.6935,
      "mean_anomaly_deg": 282.4231,
      "mean_motion_rev_day": 15.30218783
    },
    {
      "epoch": "2026-04-07T13:29:24.747072Z",
      "apogee_km": 476.08033567589973,
      "perigee_km": 474.375218519358,
      "latitude_deg": -4.2907971280644164e-05,
      "longitude_deg": 122.05164441616328,
      "height_km": 475.81759445985716,
      "semi_major_axis_km": 6853.364777097629,
      "eccentricity": 0.0001244,
      "inclination_deg": 53.1596,
      "raan_deg": 160.242,
      "arg_perigee_deg": 68.795,
      "mean_anomaly_deg": 291.3183,
      "mean_motion_rev_day": 15.30195744
    },
    {
      "epoch": "2026-04-08T11:26:09.512736Z",
      "apogee_km": 476.01866601475376,
      "perigee_km": 474.3308323971605,
      "latitude_deg": -2.856579111695901e-05,
      "longitude_deg": 147.71574806988727,
      "height_km": 475.8215843503255,
      "semi_major_axis_km": 6853.311749205957,
      "eccentricity": 0.00012314,
      "inclination_deg": 53.1589,
      "raan_deg": 155.9939,
      "arg_perigee_deg": 72.6783,
      "mean_anomaly_deg": 287.4352,
      "mean_motion_rev_day": 15.30213504
    },
    {
      "epoch": "2026-04-09T20:21:16.599456Z",
      "apogee_km": 476.0978050554995,
      "perigee_km": 474.3323815562635,
      "latitude_deg": 5.970912327324684e-05,
      "longitude_deg": 6.214561448432883,
      "height_km": 476.0938380954637,
      "semi_major_axis_km": 6853.352093305882,
      "eccentricity": 0.0001288,
      "inclination_deg": 53.1588,
      "raan_deg": 149.6241,
      "arg_perigee_deg": 88.7557,
      "mean_anomaly_deg": 271.3592,
      "mean_motion_rev_day": 15.30199992
    },
    {
      "epoch": "2026-04-10T12:01:48.292896Z",
      "apogee_km": 475.8755704640589,
      "perigee_km": 474.51723978316386,
      "latitude_deg": 1.6335250823561555e-05,
      "longitude_deg": 127.40390280050615,
      "height_km": 476.15656222475724,
      "semi_major_axis_km": 6853.333405123612,
      "eccentricity": 9.91e-05,
      "inclination_deg": 53.1578,
      "raan_deg": 146.5893,
      "arg_perigee_deg": 95.2324,
      "mean_anomaly_deg": 264.879,
      "mean_motion_rev_day": 15.30206251
    },
    {
      "epoch": "2026-04-11T19:22:52.255200Z",
      "apogee_km": 475.76107866757684,
      "perigee_km": 474.66317213768707,
      "latitude_deg": 3.3387751001140626e-05,
      "longitude_deg": 9.780459506636927,
      "height_km": 476.0346214069522,
      "semi_major_axis_km": 6853.349125402632,
      "eccentricity": 8.01e-05,
      "inclination_deg": 53.1586,
      "raan_deg": 140.5199,
      "arg_perigee_deg": 82.0354,
      "mean_anomaly_deg": 278.0738,
      "mean_motion_rev_day": 15.30200986
    },
    {
      "epoch": "2026-04-13T05:52:02.841312Z",
      "apogee_km": 476.0022154736398,
      "perigee_km": 474.46089288580333,
      "latitude_deg": 4.046796625944759e-05,
      "longitude_deg": -155.60274562645384,
      "height_km": 475.9641107314568,
      "semi_major_axis_km": 6853.368554179721,
      "eccentricity": 0.00011245,
      "inclination_deg": 53.1578,
      "raan_deg": 133.8471,
      "arg_perigee_deg": 77.5983,
      "mean_anomaly_deg": 282.5144,
      "mean_motion_rev_day": 15.30194479
    },
    {
      "epoch": "2026-04-14T08:30:57.000096Z",
      "apogee_km": 475.89016970222383,
      "perigee_km": 474.5208718665708,
      "latitude_deg": 2.6743869390932405e-05,
      "longitude_deg": 158.41967355532222,
      "height_km": 475.9147473359717,
      "semi_major_axis_km": 6853.3425207843975,
      "eccentricity": 9.99e-05,
      "inclination_deg": 53.1574,
      "raan_deg": 128.6896,
      "arg_perigee_deg": 73.9762,
      "mean_anomaly_deg": 286.1349,
      "mean_motion_rev_day": 15.30203198
    }
  ]
}